CUTE-1 (CO-55)          
1 27844U 03031E   18159.58578443  .00000054  00000-0  44212-4 0  9996
2 27844  98.6864 168.3691 0010614  42.3673 317.8323 14.22116508774936
CUBESAT XI-IV (CO-57)   
1 27848U 03031J   18159.54272226  .00000046  00000-0  40748-4 0  9997
2 27848  98.6950 168.7219 0010661  51.9513 308.2625 14.21720140774837
CUBESAT XI 5            
1 28895U 05043F   18159.38850690  .00000124  00000-0  32625-4 0  9996
2 28895  97.9080 311.2011 0018298  97.1225 263.2059 14.63551336672593
CUTE-1.7+APD II (CO-65) 
1 32785U 08021C   18159.50830709  .00000239  00000-0  31505-4 0  9994
2 32785  97.5471 172.1009 0014644  69.8582 290.4209 14.88126923547812
AAUSAT-II               
1 32788U 08021F   18159.58428710  .00000158  00000-0  19699-4 0  9990
2 32788  97.5219 186.4486 0012493  25.1085 335.0741 14.94352674548791
DELFI-C3 (DO-64)        
1 32789U 08021G   18159.34195202  .00001034  00000-0  74887-4 0  9996
2 32789  97.5127 214.3757 0011439 335.8890  24.1800 15.06070225550356
SEEDS II (CO-66)        
1 32791U 08021J   18159.54401285  .00000339  00000-0  40011-4 0  9991
2 32791  97.5362 177.4744 0014668  51.9904 308.2636 14.90559474548220
SWISSCUBE               
1 35932U 09051B   18159.36627890  .00000142  00000-0  43227-4 0  9991
2 35932  98.5442 310.3153 0006691 230.7818 129.2785 14.56163851462155
BEESAT                  
1 35933U 09051C   18159.39413119  .00000108  00000-0  35384-4 0  9999
2 35933  98.5482 311.8861 0004729 244.5522 115.5186 14.56267227462185
ITUPSAT 1               
1 35935U 09051E   18159.37518217  .00000111  00000-0  36557-4 0  9991
2 35935  98.5594 312.1197 0007069 241.0867 118.9621 14.55444085462012
M-CUBED & EXP-1 PRIME   
1 37855U 11061F   18159.49536805  .00001884  00000-0  10326-3 0  9997
2 37855 101.7164 217.5848 0176780 108.0027 254.0538 15.04430370360342
STRAND-1                
1 39090U 13009E   18159.53369064  .00000041  00000-0  29736-4 0  9990
2 39090  98.5227   6.0319 0008601 330.3621  29.7076 14.35028150276564
AIST-2 (RS-43)          
1 39133U 13015D   18159.54078720  .00000055  00000-0  16440-4 0  9995
2 39133  64.8733 239.1319 0023395 223.9493 135.9767 15.04556937281918
SOMP                    
1 39134U 13015E   18159.44461785  .00000993  00000-0  56456-4 0  9994
2 39134  64.8622 155.1894 0013122 213.6615 146.3680 15.19159588283199
BEESAT 3                
1 39135U 13015F   18159.45215763  .00000684  00000-0  44672-4 0  9993
2 39135  64.8668 168.4095 0021853 236.6973 123.2060 15.16670444282935
BEESAT-2                
1 39136U 13015G   18159.48478868  .00000628  00000-0  42416-4 0  9996
2 39136  64.8680 171.0654 0022525 238.7593 121.1326 15.16141408283272
NEE-01 PEGASUS          
1 39151U 13018B   18159.51190521  .00000130  00000-0  24270-4 0  9993
2 39151  97.9747 253.6384 0016494 341.4922  18.5688 14.79903743276237
ESTCUBE 1               
1 39161U 13021C   18159.46306211  .00000198  00000-0  39343-4 0  9998
2 39161  98.0083 245.4549 0011108  87.5327 272.7154 14.72069100273163
POPACS 1                
1 39268U 13055D   18159.27238399  .00002092  00000-0  59534-4 0  9992
2 39268  81.0038 355.6407 0636993 252.6122 100.4477 14.34181546241700
POPACS 2                
1 39269U 13055E   18159.33262708  .00001509  00000-0  44201-4 0  9998
2 39269  81.0168  17.3503 0691051 309.0081  45.1466 14.22121291240666
POPACS 3                
1 39270U 13055F   18158.91348014  .00000793  00000-0  24281-4 0  9998
2 39270  81.0180  29.8976 0719190 346.0501  12.1679 14.14659789220349
ZACUBE-1 (TSHEPISOSAT)  
1 39417U 13066B   18159.53102576  .00000184  00000-0  29654-4 0  9996
2 39417  97.5875 188.6325 0059092 182.0080 178.0906 14.80937659245514
WNISAT-1                
1 39423U 13066H   18159.46132133  .00000103  00000-0  29722-4 0  9994
2 39423  97.7285 124.2215 0176774  44.9743 316.5609 14.52955085240966
GOMX 1                  
1 39430U 13066Q   18159.52578944  .00000203  00000-0  45933-4 0  9996
2 39430  97.6969 137.0227 0151600 358.5096   1.5633 14.59081620241896
CUBEBUG-2 (LO-74)       
1 39440U 13066AA  18159.59686051  .00000208  00000-0  36098-4 0  9990
2 39440  97.6013 175.3439 0079407 222.6165 136.8867 14.75674520243459
NEE-02 KRYSAOR          
1 39441U 13066AB  18159.54171804  .00000134  00000-0  26370-4 0  9991
2 39441  97.6017 173.4992 0080763 227.9650 131.4667 14.74778932243349
FUNCUBE-1 (AO-73)       
1 39444U 13066AE  18159.53153185  .00000280  00000-0  40903-4 0  9995
2 39444  97.5883 190.1472 0058367 177.3972 182.7556 14.81716713243782
UWE-3                   
1 39446U 13066AG  18159.56667367  .00000198  00000-0  33073-4 0  9990
2 39446  97.5930 181.5965 0069589 202.7080 157.1050 14.78208340243254
BRITE-TORONTO           
1 40020U 14033L   18159.55441169  .00000090  00000-0  24006-4 0  9991
2 40020  97.7874  18.3153 0086073 272.5656  86.5698 14.66495790212310
DUCHIFAT-1              
1 40021U 14033M   18159.46441113  .00000398  00000-0  46843-4 0  9995
2 40021  97.9165  78.1674 0012207 201.5096 158.5610 14.90308997215659
NANOSATC-BR1            
1 40024U 14033Q   18159.29964390  .00000308  00000-0  38193-4 0  9996
2 40024  97.9101  76.2635 0011433 203.9737 156.0949 14.89571973215557
QB50P1                  
1 40025U 14033R   18159.54414406  .00000209  00000-0  28356-4 0  9993
2 40025  97.9060  74.9602 0011629 207.8891 152.1703 14.88716388214994
QB50P2                  
1 40032U 14033Y   18159.56442816  .00000232  00000-0  31217-4 0  9995
2 40032  97.9014  73.6902 0011129 202.8483 157.2240 14.88261879214922
PERSEUS-M2              
1 40037U 14033AD  18159.53259150  .00000094  00000-0  16889-4 0  9998
2 40037  97.9001  71.2235 0013527 213.4083 146.6280 14.86358530215245
PERSEUS-M1              
1 40039U 14033AF  18159.55538067  .00000059  00000-0  13096-4 0  9997
2 40039  97.8999  70.6128 0013432 209.7853 150.2599 14.85980344215195
POLYITAN-1              
1 40042U 14033AJ  18159.46440823  .00000262  00000-0  34288-4 0  9995
2 40042  97.9134  75.0049 0014096 197.5864 162.4866 14.88397916214905
TIGRISAT                
1 40043U 14033AK  18159.55037565  .00000118  00000-0  25043-4 0  9990
2 40043  97.8100  37.1848 0058937 225.8415 133.7941 14.74141789213334
AEROCUBE 6A             
1 40045U 14033AM  18159.55834221  .00000290  00000-0  49369-4 0  9994
2 40045  97.8268  39.4583 0056779 220.0686 139.6330 14.75148236213018
AEROCUBE 6B             
1 40046U 14033AN  18159.55951977  .00000270  00000-0  46549-4 0  9998
2 40046  97.8235  39.3160 0056164 219.3460 140.3663 14.75141352213012
UKUBE-1                 
1 40074U 14037F   18159.45248978  .00000368  00000-0  51534-4 0  9990
2 40074  98.3877 296.2694 0004381   2.0865 358.0364 14.83802532212004
BRITE-PL 2              
1 40119U 14049B   18159.30960940  .00000116  00000-0  20311-4 0  9997
2 40119  97.9178 247.9731 0017678  11.8772 348.2856 14.84292326205897
FIREBIRD 4              
1 40378U 15003C   18159.60164229  .00001269  00000-0  56019-4 0  9998
2 40378  99.0881  59.7046 0130306 259.1208  99.5334 15.17231293185012
GRIFEX                  
1 40379U 15003D   18159.55394506  .00000988  00000-0  47675-4 0  9991
2 40379  99.0909  55.8336 0137272 271.8769  86.6741 15.14339545184783
EXOCUBE                 
1 40380U 15003E   18159.59708373  .00000800  00000-0  41172-4 0  9997
2 40380  99.0956  53.7806 0141709 278.8849  79.6356 15.12547107184644
TIANWANG 1C (TW-1C)     
1 40926U 15051B   18159.48780579  .00008339  00000-0  15592-3 0  9993
2 40926  97.1842 201.8713 0008238 315.9311 151.6325 15.48947791151960
TIANWANG 1A (TW-1A)     
1 40928U 15051D   18159.49441581  .00002615  00000-0  70399-4 0  9991
2 40928  97.1863 193.6562 0011835   2.8527 103.1432 15.38683733151449
EXACTVIEW 9             
1 40936U 15052G   18158.62889794  .00000795  00000-0  22318-4 0  9992
2 40936   5.9992 222.2192 0010129 225.1841 134.7418 14.76387935145555
ATHENOXAT 1             
1 41168U 15077C   18159.53753130  .00001983  00000-0  71867-4 0  9995
2 41168  14.9883  83.6006 0012135 280.3840 258.6685 15.12772460137067
GALASSIA                
1 41170U 15077E   18159.38792435  .00001751  00000-0  58202-4 0  9993
2 41170  14.9892  79.3078 0013245 299.3904  60.5095 15.13155649137098
VELOX 2                 
1 41171U 15077F   18159.46043970  .00001364  00000-0  40994-4 0  9995
2 41171  14.9911 100.3188 0009045 239.8850 120.0574 15.10651236136914
HORYU-IV                
1 41340U 16012D   18159.60839351  .00000480  00000-0  29982-4 0  9997
2 41340  31.0063   1.5386 0014032   7.2492 352.8344 15.00987611126606
E-ST@R-II               
1 41459U 16025D   18159.39889062  .00001396  00000-0  76772-4 0  9998
2 41459  98.1347 221.6230 0171368 177.4603 182.7544 15.04355634116103
AAUSAT 4                
1 41460U 16025E   18159.51875975  .00003487  00000-0  18238-3 0  9997
2 41460  98.1305 222.2362 0163072 173.1380 187.2156 15.05791811116189
DIWATA-1                
1 41463U 98067HT  18159.46798068  .00010720  00000-0  91422-4 0  9992
2 41463  51.6400  17.0928 0002030  99.0524 333.8241 15.70154416120637
BEESAT-4                
1 41619U 16040W   18159.39129144  .00001370  00000-0  62810-4 0  9991
2 41619  97.4155 222.6594 0009927 259.5047 100.5071 15.22105149 96754
CANX-7                  
1 41788U 16059F   18159.46685502  .00007117  00000-0  12005-2 0  9995
2 41788  98.2084 225.9276 0034734 124.1351 236.3157 14.69378272 90827
ALSAT 1N                
1 41789U 16059G   18159.55230665  .00000105  00000-0  28953-4 0  9993
2 41789  98.1191 222.4574 0029684 113.6200 246.8131 14.64157711 90751
RAVAN                   
1 41849U 16067B   18159.19550432  .00001407  00000-0  12504-3 0  9996
2 41849  97.9259 247.8128 0008653 180.2665 179.8554 14.97763708 85780
CELTEE 1                
1 41850U 16067C   18159.20109875  .00000618  00000-0  59276-4 0  9992
2 41850  97.9243 247.2886 0008616 182.4057 177.7124 14.96817149 85753
